ORBCOMM FM37            
1 33064U 08031E   25177.74985368  .00000796  00000+0  13260-3 0  9996
2 33064  48.4408 298.1727 0004666  52.5492 100.0162 14.79795632915469
ORBCOMM FM40            
1 33065U 08031F   25178.29863808  .00001141  00000+0  16914-3 0  9996
2 33065  48.4425 279.4305 0005624  69.8863 320.1463 14.82061773916108
VESSELSAT 1             
1 37840U 11058C   25178.28040970  .00000318  00000+0  28913-4 0  9998
2 37840  19.9634  32.8113 0013587 297.7652  62.1375 14.11355306707968
ORBCOMM FM109           
1 40086U 14040A   25178.46292489  .00000252  00000+0  90711-4 0  9994
2 40086  47.0044 327.7624 0001141   8.4883 351.6021 14.58187419582683
ORBCOMM FM107           
1 40087U 14040B   25178.49106835  .00000355  00000+0  11260-3 0  9992
2 40087  47.0061 328.5910 0001430 297.5264  62.5476 14.58258687582683
ORBCOMM FM106           
1 40088U 14040C   25177.88673373  .00000434  00000+0  10419-3 0  9994
2 40088  47.0589 152.7702 0015914 111.8891 248.3694 14.69458714584909
ORBCOMM FM111           
1 40089U 14040D   25177.96532394  .00001330  00000+0  17273-3 0  9992
2 40089  47.0034   1.2438 0031041 239.3632 120.4203 14.86338092591681
ORBCOMM FM104           
1 40090U 14040E   25177.94195701  .00000245  00000+0  92027-4 0  9994
2 40090  47.0067   4.9092 0016881 249.5771 110.3301 14.56656376582049
